{"type": "FeatureCollection", "features": [ {"type": "Feature", "properties": {"norad_id": 31658, "name": "FENGYUN 1C DEB", "group": "fengyun-1c-debris", "lat": 79.80945196712747, "lon": 74.22028125005788, "alt_km": 1026.2922880363994, "timestamp": "2025-12-18T21:31:51.285242+00:00", "meta": {"OBJECT_NAME": "FENGYUN 1C DEB", "OBJECT_ID": "1999-025CBQ", "EPOCH": "2025-12-15T19:15:14.177952", "MEAN_MOTION": 13.98832414, "ECCENTRICITY": 0.02153591, "INCLINATION": 98.1533, "RA_OF_ASC_NODE": 198.5701, "ARG_OF_PERICENTER": 314.0945, "MEAN_ANOMALY": 44.2671, "EPHEMERIS_TYPE": 0, "CLASSIFICATION_TYPE": "U", "NORAD_CAT_ID": 31658, "ELEMENT_SET_NO": 999, "REV_AT_EPOCH": 69859, "BSTAR": 0.002130645, "MEAN_MOTION_DOT": 3.707e-05, "MEAN_MOTION_DDOT": 0}, "tle": {"line1": "1 31658U 99025CBQ 25349.80224743  .00003707  00000+0  21306-2 0  9991", "line2": "2 31658  98.1533 198.5701 0215359 314.0945  44.2671 13.98832414698590"}}, "geometry": {"type": "Point", "coordinates": [74.22028125005788, 79.80945196712747]}}, {"type": "Feature", "properties": {"norad_id": 31660, "name": "FENGYUN 1C DEB", "group": "fengyun-1c-debris", "lat": -55.91071317093198, "lon": 161.29894518397563, "alt_km": 787.7706746738413, "timestamp": "2025-12-18T21:31:51.285252+00:00", "meta": {"OBJECT_NAME": "FENGYUN 1C DEB", "OBJECT_ID": "1999-025CBS", "EPOCH": "2025-12-16T17:57:05.517792", "MEAN_MOTION": 14.27134643, "ECCENTRICITY": 0.01019278, "INCLINATION": 98.5088, "RA_OF_ASC_NODE": 351.9874, "ARG_OF_PERICENTER": 168.851, "MEAN_ANOMALY": 191.4963, "EPHEMERIS_TYPE": 0, "CLASSIFICATION_TYPE": "U", "NORAD_CAT_ID": 31660, "ELEMENT_SET_NO": 999, "REV_AT_EPOCH": 7973, "BSTAR": 0.0004636242, "MEAN_MOTION_DOT": 1.153e-05, "MEAN_MOTION_DDOT": 0}, "tle": {"line1": "1 31660U 99025CBS 25350.74798053  .00001153  00000+0  46362-3 0  9992", "line2": "2 31660  98.5088 351.9874 0101927 168.8510 191.4963 14.27134643 79736"}}, "geometry": {"type": "Point", "coordinates": [161.29894518397563, -55.91071317093198]}}, {"type": "Feature", "properties": {"norad_id": 31661, "name": "FENGYUN 1C DEB", "group": "fengyun-1c-debris", "lat": -77.96281489123454, "lon": -154.9676577516525, "alt_km": 790.0987891984296, "timestamp": "2025-12-18T21:31:51.285263+00:00", "meta": {"OBJECT_NAME": "FENGYUN 1C DEB", "OBJECT_ID": "1999-025CBT", "EPOCH": "2025-12-16T04:25:52.038912", "MEAN_MOTION": 14.25463748, "ECCENTRICITY": 0.00587481, "INCLINATION": 98.8594, "RA_OF_ASC_NODE": 69.3007, "ARG_OF_PERICENTER": 214.1722, "MEAN_ANOMALY": 175.2427, "EPHEMERIS_TYPE": 0, "CLASSIFICATION_TYPE": "U", "NORAD_CAT_ID": 31661, "ELEMENT_SET_NO": 999, "REV_AT_EPOCH": 95762, "BSTAR": 0.001225653, "MEAN_MOTION_DOT": 2.902e-05, "MEAN_MOTION_DDOT": 0}, "tle": {"line1": "1 31661U 99025CBT 25350.18463008  .00002902  00000+0  12257-2 0  9998", "line2": "2 31661  98.8594  69.3007 0058748 214.1722 175.2427 14.25463748957629"}}, "geometry": {"type": "Point", "coordinates": [-154.9676577516525, -77.96281489123454]}}, {"type": "Feature", "properties": {"norad_id": 31663, "name": "FENGYUN 1C DEB", "group": "fengyun-1c-debris", "lat": 37.10411858219554, "lon": 88.1080684039936, "alt_km": 602.7337381060361, "timestamp": "2025-12-18T21:31:51.285273+00:00", "meta": {"OBJECT_NAME": "FENGYUN 1C DEB", "OBJECT_ID": "1999-025CBV", "EPOCH": "2025-12-16T13:34:15.010464", "MEAN_MOTION": 14.76422844, "ECCENTRICITY": 0.0189652, "INCLINATION": 98.8383, "RA_OF_ASC_NODE": 258.7977, "ARG_OF_PERICENTER": 225.3257, "MEAN_ANOMALY": 133.2363, "EPHEMERIS_TYPE": 0, "CLASSIFICATION_TYPE": "U", "NORAD_CAT_ID": 31663, "ELEMENT_SET_NO": 999, "REV_AT_EPOCH": 99336, "BSTAR": 0.00022604034, "MEAN_MOTION_DOT": 2.035e-05, "MEAN_MOTION_DDOT": 0}, "tle": {"line1": "1 31663U 99025CBV 25350.56545151  .00002035  00000+0  22604-3 0  9997", "line2": "2 31663  98.8383 258.7977 0189652 225.3257 133.2363 14.76422844993365"}}, "geometry": {"type": "Point", "coordinates": [88.1080684039936, 37.10411858219554]}}, {"type": "Feature", "properties": {"norad_id": 31664, "name": "FENGYUN 1C DEB", "group": "fengyun-1c-debris", "lat": -54.904101834041235, "lon": -3.088796818193877, "alt_km": 951.9960448242964, "timestamp": "2025-12-18T21:31:51.285283+00:00", "meta": {"OBJECT_NAME": "FENGYUN 1C DEB", "OBJECT_ID": "1999-025CBW", "EPOCH": "2025-12-16T10:12:21.854016", "MEAN_MOTION": 14.10300529, "ECCENTRICITY": 0.01250271, "INCLINATION": 98.7525, "RA_OF_ASC_NODE": 341.8409, "ARG_OF_PERICENTER": 147.6886, "MEAN_ANOMALY": 213.2022, "EPHEMERIS_TYPE": 0, "CLASSIFICATION_TYPE": "U", "NORAD_CAT_ID": 31664, "ELEMENT_SET_NO": 999, "REV_AT_EPOCH": 96053, "BSTAR": 0.0003241672, "MEAN_MOTION_DOT": 5.76e-06, "MEAN_MOTION_DDOT": 0}, "tle": {"line1": "1 31664U 99025CBW 25350.42525294  .00000576  00000+0  32417-3 0  9990", "line2": "2 31664  98.7525 341.8409 0125027 147.6886 213.2022 14.10300529960534"}}, "geometry": {"type": "Point", "coordinates": [-3.088796818193877, -54.904101834041235]}}, {"type": "Feature", "properties": {"norad_id": 31665, "name": "FENGYUN 1C DEB", "group": "fengyun-1c-debris", "lat": 55.44242542449888, "lon": -132.28928098738254, "alt_km": 844.7273016802701, "timestamp": "2025-12-18T21:31:51.285293+00:00", "meta": {"OBJECT_NAME": "FENGYUN 1C DEB", "OBJECT_ID": "1999-025CBX", "EPOCH": "2025-12-16T08:14:19.517280", "MEAN_MOTION": 13.84829693, "ECCENTRICITY": 0.01897318, "INCLINATION": 98.4487, "RA_OF_ASC_NODE": 32.9474, "ARG_OF_PERICENTER": 177.2489, "MEAN_ANOMALY": 182.9759, "EPHEMERIS_TYPE": 0, "CLASSIFICATION_TYPE": "U", "NORAD_CAT_ID": 31665, "ELEMENT_SET_NO": 999, "REV_AT_EPOCH": 93241, "BSTAR": 0.0010116548, "MEAN_MOTION_DOT": 1.275e-05, "MEAN_MOTION_DDOT": 0}, "tle": {"line1": "1 31665U 99025CBX 25350.34328145  .00001275  00000+0  10117-2 0  9997", "line2": "2 31665  98.4487  32.9474 0189731 177.2489 182.9759 13.84829693932412"}}, "geometry": {"type": "Point", "coordinates": [-132.28928098738254, 55.44242542449888]}}, {"type": "Feature", "properties": {"norad_id": 31666, "name": "FENGYUN 1C DEB", "group": "fengyun-1c-debris", "lat": -49.710343084877344, "lon": -48.25662612926655, "alt_km": 625.491384566275, "timestamp": "2025-12-18T21:31:51.285304+00:00", "meta": {"OBJECT_NAME": "FENGYUN 1C DEB", "OBJECT_ID": "1999-025CBY", "EPOCH": "2025-12-17T08:54:08.935200", "MEAN_MOTION": 14.84181943, "ECCENTRICITY": 0.00239851, "INCLINATION": 98.6556, "RA_OF_ASC_NODE": 140.4403, "ARG_OF_PERICENTER": 135.8475, "MEAN_ANOMALY": 224.4657, "EPHEMERIS_TYPE": 0, "CLASSIFICATION_TYPE": "U", "NORAD_CAT_ID": 31666, "ELEMENT_SET_NO": 999, "REV_AT_EPOCH": 97340, "BSTAR": 0.0031502503, "MEAN_MOTION_DOT": 0.00026506, "MEAN_MOTION_DDOT": 0}, "tle": {"line1": "1 31666U 99025CBY 25351.37093675  .00026506  00000+0  31503-2 0  9995", "line2": "2 31666  98.6556 140.4403 0023985 135.8475 224.4657 14.84181943973405"}}, "geometry": {"type": "Point", "coordinates": [-48.25662612926655, -49.710343084877344]}}, {"type": "Feature", "properties": {"norad_id": 31667, "name": "FENGYUN 1C DEB", "group": "fengyun-1c-debris", "lat": 75.81325985156396, "lon": 165.82420061046858, "alt_km": 769.5259151587334, "timestamp": "2025-12-18T21:31:51.285314+00:00", "meta": {"OBJECT_NAME": "FENGYUN 1C DEB", "OBJECT_ID": "1999-025CBZ", "EPOCH": "2025-12-08T19:56:03.363072", "MEAN_MOTION": 14.2349492, "ECCENTRICITY": 0.00517979, "INCLINATION": 99.0845, "RA_OF_ASC_NODE": 194.7017, "ARG_OF_PERICENTER": 98.3602, "MEAN_ANOMALY": 262.3452, "EPHEMERIS_TYPE": 0, "CLASSIFICATION_TYPE": "U", "NORAD_CAT_ID": 31667, "ELEMENT_SET_NO": 999, "REV_AT_EPOCH": 55937, "BSTAR": 0.00044657651, "MEAN_MOTION_DOT": 9.83e-06, "MEAN_MOTION_DDOT": 0}, "tle": {"line1": "1 31667U 99025CBZ 25342.83059448  .00000983  00000+0  44658-3 0  9994", "line2": "2 31667  99.0845 194.7017 0051797  98.3602 262.3452 14.23494920559377"}}, "geometry": {"type": "Point", "coordinates": [165.82420061046858, 75.81325985156396]}}, {"type": "Feature", "properties": {"norad_id": 31672, "name": "FENGYUN 1C DEB", "group": "fengyun-1c-debris", "lat": 43.16030335389689, "lon": 172.38753103022447, "alt_km": 705.373586614016, "timestamp": "2025-12-18T21:31:51.285324+00:00", "meta": {"OBJECT_NAME": "FENGYUN 1C DEB", "OBJECT_ID": "1999-025CCE", "EPOCH": "2025-12-09T18:52:12.464832", "MEAN_MOTION": 14.50862941, "ECCENTRICITY": 0.0108049, "INCLINATION": 98.9574, "RA_OF_ASC_NODE": 171.1973, "ARG_OF_PERICENTER": 350.6234, "MEAN_ANOMALY": 9.2939, "EPHEMERIS_TYPE": 0, "CLASSIFICATION_TYPE": "U", "NORAD_CAT_ID": 31672, "ELEMENT_SET_NO": 999, "REV_AT_EPOCH": 64828, "BSTAR": 0.002472233, "MEAN_MOTION_DOT": 0.00010473, "MEAN_MOTION_DDOT": 0}, "tle": {"line1": "1 31672U 99025CCE 25343.78625538  .00010473  00000+0  24722-2 0  9998", "line2": "2 31672  98.9574 171.1973 0108049 350.6234   9.2939 14.50862941648287"}}, "geometry": {"type": "Point", "coordinates": [172.38753103022447, 43.16030335389689]}}, {"type": "Feature", "properties": {"norad_id": 31673, "name": "FENGYUN 1C DEB", "group": "fengyun-1c-debris", "lat": -28.43787557599529, "lon": -167.00450208463946, "alt_km": 745.243374631159, "timestamp": "2025-12-18T21:31:51.285334+00:00", "meta": {"OBJECT_NAME": "FENGYUN 1C DEB", "OBJECT_ID": "1999-025CCF", "EPOCH": "2025-12-17T12:07:26.297472", "MEAN_MOTION": 14.31948399, "ECCENTRICITY": 0.01255829, "INCLINATION": 99.3741, "RA_OF_ASC_NODE": 186.3601, "ARG_OF_PERICENTER": 35.3112, "MEAN_ANOMALY": 325.6307, "EPHEMERIS_TYPE": 0, "CLASSIFICATION_TYPE": "U", "NORAD_CAT_ID": 31673, "ELEMENT_SET_NO": 999, "REV_AT_EPOCH": 64959, "BSTAR": 0.00017748965, "MEAN_MOTION_DOT": 4.66e-06, "MEAN_MOTION_DDOT": 0}, "tle": {"line1": "1 31673U 99025CCF 25351.50516548  .00000466  00000+0  17749-3 0  9991", "line2": "2 31673  99.3741 186.3601 0125582  35.3112 325.6307 14.31948399649598"}}, "geometry": {"type": "Point", "coordinates": [-167.00450208463946, -28.43787557599529]}}]}